start=new Date('2021-10-03T00:00:00.000Z').valueOf();
sats=[{"LAUNCH_DATE":"2020-01-29","COUNTRY_CODE":"US","REF_FRAME":"TEME","INCLINATION":"53.0557","OBJECT_TYPE":"PAYLOAD","NORAD_CAT_ID":"45071","EPHEMERIS_TYPE":"0","MEAN_ANOMALY":"261.4933","SEMIMAJOR_AXIS":"6925.353","FILE":"3141323","GP_ID":"186050271","OBJECT_ID":"2020-006AD","PERIOD":"95.592","REV_AT_EPOCH":"9270","ECCENTRICITY":"0.00010880","TIME_SYSTEM":"UTC","MEAN_MOTION":"15.06398506","MEAN_ELEMENT_THEORY":"SGP4","MEAN_MOTION_DDOT":"0.0000000000000","SITE":"AFETR","RCS_SIZE":"LARGE","EPOCH":"2021-10-02T14:14:33.806976","APOAPSIS":"547.972","ARG_OF_PERICENTER":"98.6179","MEAN_MOTION_DOT":"0.00000546","CENTER_NAME":"EARTH","CLASSIFICATION_TYPE":"U","DECAY_DATE":null,"TLE_LINE2":"2 45071  53.0557 335.0313 0001088  98.6179 261.4933 15.06398506 92708","TLE_LINE1":"1 45071U 20006AD  21275.59344684  .00000546  00000-0  55540-4 0  9993","ELEMENT_SET_NO":"999","RA_OF_ASC_NODE":"335.0313","OBJECT_NAME":"STARLINK-1167","PERIAPSIS":"546.465","BSTAR":"0.00005554000000"},{"LAUNCH_DATE":"2020-01-29","COUNTRY_CODE":"US","REF_FRAME":"TEME","NORAD_CAT_ID":"45072","INCLINATION":"53.0533","OBJECT_TYPE":"PAYLOAD","EPHEMERIS_TYPE":"0","MEAN_ANOMALY":"269.9653","SEMIMAJOR_AXIS":"6925.315","FILE":"3141323","GP_ID":"186050522","OBJECT_ID":"2020-006AE","PERIOD":"95.591","TIME_SYSTEM":"UTC","REV_AT_EPOCH":"9270","ECCENTRICITY":"0.00010920","MEAN_MOTION":"15.06410970","MEAN_ELEMENT_THEORY":"SGP4","MEAN_MOTION_DDOT":"0.0000000000000","SITE":"AFETR","RCS_SIZE":"LARGE","EPOCH":"2021-10-02T14:19:51.772800","APOAPSIS":"547.936","ARG_OF_PERICENTER":"90.1461","MEAN_MOTION_DOT":"0.00004443","CLASSIFICATION_TYPE":"U","CENTER_NAME":"EARTH","TLE_LINE2":"2 45072  53.0533 335.0212 0001092  90.1461 269.9653 15.06410970 92709","DECAY_DATE":null,"TLE_LINE1":"1 45072U 20006AE  21275.59712700  .00004443  00000-0  31686-3 0  9996","ELEMENT_SET_NO":"999","OBJECT_NAME":"STARLINK-1168","RA_OF_ASC_NODE":"335.0212","PERIAPSIS":"546.424","BSTAR":"0.00031686000000"},{"REF_FRAME":"TEME","COUNTRY_CODE":"US","LAUNCH_DATE":"2020-01-29","GP_ID":"186051273","OBJECT_ID":"2020-006AF","FILE":"3141323","SEMIMAJOR_AXIS":"6925.369","EPHEMERIS_TYPE":"0","MEAN_ANOMALY":"254.8079","OBJECT_TYPE":"PAYLOAD","INCLINATION":"53.0553","NORAD_CAT_ID":"45073","REV_AT_EPOCH":"9268","ECCENTRICITY":"0.00009570","TIME_SYSTEM":"UTC","PERIOD":"95.593","MEAN_ELEMENT_THEORY":"SGP4","MEAN_MOTION":"15.06393230","APOAPSIS":"547.897","EPOCH":"2021-10-02T11:45:57.099744","RCS_SIZE":"LARGE","SITE":"AFETR","MEAN_MOTION_DDOT":"0.0000000000000","MEAN_MOTION_DOT":"0.00000253","ARG_OF_PERICENTER":"105.3016","RA_OF_ASC_NODE":"335.4874","OBJECT_NAME":"STARLINK-1170","ELEMENT_SET_NO":"999","TLE_LINE1":"1 45073U 20006AF  21275.49024421  .00000253  00000-0  35896-4 0  9995","TLE_LINE2":"2 45073  53.0553 335.4874 0000957 105.3016 254.8079 15.06393230 92685","DECAY_DATE":null,"CENTER_NAME":"EARTH","CLASSIFICATION_TYPE":"U","BSTAR":"0.00003589600000","PERIAPSIS":"546.572"},{"MEAN_MOTION_DOT":"0.00005492","ARG_OF_PERICENTER":"86.7320","APOAPSIS":"547.891","EPOCH":"2021-10-02T13:00:16.209792","RCS_SIZE":"LARGE","MEAN_MOTION_DDOT":"0.0000000000000","SITE":"AFETR","BSTAR":"0.00038718000000","PERIAPSIS":"546.468","RA_OF_ASC_NODE":"335.2675","OBJECT_NAME":"STARLINK-1172","ELEMENT_SET_NO":"999","DECAY_DATE":null,"TLE_LINE2":"2 45074  53.0560 335.2675 0001027  86.7320 273.3787 15.06411046 92699","TLE_LINE1":"1 45074U 20006AG  21275.54185428  .00005492  00000-0  38718-3 0  9992","CENTER_NAME":"EARTH","CLASSIFICATION_TYPE":"U","OBJECT_ID":"2020-006AG","GP_ID":"186050021","FILE":"3141323","SEMIMAJOR_AXIS":"6925.315","EPHEMERIS_TYPE":"0","MEAN_ANOMALY":"273.3787","OBJECT_TYPE":"PAYLOAD","INCLINATION":"53.0560","NORAD_CAT_ID":"45074","REF_FRAME":"TEME","COUNTRY_CODE":"US","LAUNCH_DATE":"2020-01-29","MEAN_ELEMENT_THEORY":"SGP4","MEAN_MOTION":"15.06411046","REV_AT_EPOCH":"9269","ECCENTRICITY":"0.00010270","TIME_SYSTEM":"UTC","PERIOD":"95.591"},{"MEAN_ELEMENT_THEORY":"SGP4","MEAN_MOTION":"15.06400496","PERIOD":"95.592","REV_AT_EPOCH":"9270","ECCENTRICITY":"0.00009130","TIME_SYSTEM":"UTC","EPHEMERIS_TYPE":"0","MEAN_ANOMALY":"271.9365","INCLINATION":"53.0567","OBJECT_TYPE":"PAYLOAD","NORAD_CAT_ID":"45075","GP_ID":"186049772","FILE":"3141323","OBJECT_ID":"2020-006AH","SEMIMAJOR_AXIS":"6925.347","COUNTRY_CODE":"US","LAUNCH_DATE":"2020-01-29","REF_FRAME":"TEME","PERIAPSIS":"546.580","BSTAR":"0.00005559900000","TLE_LINE2":"2 45075  53.0567 335.1184 0000913  88.1729 271.9365 15.06400496 92708","TLE_LINE1":"1 45075U 20006AH  21275.57502098  .00000547  00000-0  55599-4 0  9995","DECAY_DATE":null,"CENTER_NAME":"EARTH","CLASSIFICATION_TYPE":"U","RA_OF_ASC_NODE":"335.1184","OBJECT_NAME":"STARLINK-1174","ELEMENT_SET_NO":"999","ARG_OF_PERICENTER":"88.1729","MEAN_MOTION_DOT":"0.00000547","RCS_SIZE":"LARGE","SITE":"AFETR","MEAN_MOTION_DDOT":"0.0000000000000","EPOCH":"2021-10-02T13:48:01.812672","APOAPSIS":"547.844"},{"REV_AT_EPOCH":"9271","ECCENTRICITY":"0.00010150","TIME_SYSTEM":"UTC","PERIOD":"95.592","MEAN_MOTION":"15.06406588","MEAN_ELEMENT_THEORY":"SGP4","REF_FRAME":"TEME","LAUNCH_DATE":"2020-01-29","COUNTRY_CODE":"US","SEMIMAJOR_AXIS":"6925.328","GP_ID":"186051023","FILE":"3141323","OBJECT_ID":"2020-006AJ","OBJECT_TYPE":"PAYLOAD","INCLINATION":"53.0547","NORAD_CAT_ID":"45076","EPHEMERIS_TYPE":"0","MEAN_ANOMALY":"267.1973","ELEMENT_SET_NO":"999","RA_OF_ASC_NODE":"334.7802","OBJECT_NAME":"STARLINK-1180","CENTER_NAME":"EARTH","CLASSIFICATION_TYPE":"U","DECAY_DATE":null,"TLE_LINE2":"2 45076  53.0547 334.7802 0001015  92.9132 267.1973 15.06406588 92715","TLE_LINE1":"1 45076U 20006AJ  21275.64872913  .00004501  00000-0  32077-3 0  9999","BSTAR":"0.00032077000000","PERIAPSIS":"546.490","APOAPSIS":"547.896","EPOCH":"2021-10-02T15:34:10.196832","MEAN_MOTION_DDOT":"0.0000000000000","SITE":"AFETR","RCS_SIZE":"LARGE","MEAN_MOTION_DOT":"0.00004501","ARG_OF_PERICENTER":"92.9132"},{"COUNTRY_CODE":"US","LAUNCH_DATE":"2020-01-29","REF_FRAME":"TEME","EPHEMERIS_TYPE":"0","MEAN_ANOMALY":"304.9432","NORAD_CAT_ID":"45077","OBJECT_TYPE":"PAYLOAD","INCLINATION":"53.0554","FILE":"3141323","GP_ID":"186050773","OBJECT_ID":"2020-006AK","SEMIMAJOR_AXIS":"6824.594","PERIOD":"93.514","TIME_SYSTEM":"UTC","REV_AT_EPOCH":"9291","ECCENTRICITY":"0.00013030","MEAN_ELEMENT_THEORY":"SGP4","MEAN_MOTION":"15.39882265","RCS_SIZE":"LARGE","SITE":"AFETR","MEAN_MOTION_DDOT":"0.0000000000000","EPOCH":"2021-10-02T14:57:18.457920","APOAPSIS":"447.348","ARG_OF_PERICENTER":"55.1694","MEAN_MOTION_DOT":"0.00002717","TLE_LINE2":"2 45077  53.0554 320.3146 0001303  55.1694 304.9432 15.39882265 92918","TLE_LINE1":"1 45077U 20006AK  21275.62313030  .00002717  00000-0  77250-4 0  9998","DECAY_DATE":null,"CLASSIFICATION_TYPE":"U","CENTER_NAME":"EARTH","OBJECT_NAME":"STARLINK-1182","RA_OF_ASC_NODE":"320.3146","ELEMENT_SET_NO":"999","PERIAPSIS":"445.570","BSTAR":"0.00007725000000"},{"TLE_LINE2":"2 45078  53.0571 335.2832 0001246  78.1307 281.9821 15.06399742 92684","DECAY_DATE":null,"TLE_LINE1":"1 45078U 20006AL  21275.53447098  .00000716  00000-0  66984-4 0  9990","CLASSIFICATION_TYPE":"U","CENTER_NAME":"EARTH","OBJECT_NAME":"STARLINK-1177","RA_OF_ASC_NODE":"335.2832","ELEMENT_SET_NO":"999","PERIAPSIS":"546.351","BSTAR":"0.00006698400000","RCS_SIZE":"LARGE","MEAN_MOTION_DDOT":"0.0000000000000","SITE":"AFETR","EPOCH":"2021-10-02T12:49:38.292672","APOAPSIS":"548.077","ARG_OF_PERICENTER":"78.1307","MEAN_MOTION_DOT":"0.00000716","PERIOD":"95.592","TIME_SYSTEM":"UTC","REV_AT_EPOCH":"9268","ECCENTRICITY":"0.00012460","MEAN_ELEMENT_THEORY":"SGP4","MEAN_MOTION":"15.06399742","COUNTRY_CODE":"US","LAUNCH_DATE":"2020-01-29","REF_FRAME":"TEME","EPHEMERIS_TYPE":"0","MEAN_ANOMALY":"281.9821","NORAD_CAT_ID":"45078","INCLINATION":"53.0571","OBJECT_TYPE":"PAYLOAD","FILE":"3141323","GP_ID":"186049522","OBJECT_ID":"2020-006AL","SEMIMAJOR_AXIS":"6925.349"},{"BSTAR":"0.00002911100000","PERIAPSIS":"546.375","OBJECT_NAME":"STARLINK-1149","RA_OF_ASC_NODE":"335.1041","ELEMENT_SET_NO":"999","TLE_LINE2":"2 45079  53.0544 335.1041 0001172 102.8957 257.2163 15.06408685 92693","TLE_LINE1":"1 45079U 20006AM  21275.57869226  .00000152  00000-0  29111-4 0  9991","DECAY_DATE":null,"CLASSIFICATION_TYPE":"U","CENTER_NAME":"EARTH","MEAN_MOTION_DOT":"0.00000152","ARG_OF_PERICENTER":"102.8957","EPOCH":"2021-10-02T13:53:19.011264","APOAPSIS":"547.999","RCS_SIZE":"LARGE","SITE":"AFETR","MEAN_MOTION_DDOT":"0.0000000000000","MEAN_ELEMENT_THEORY":"SGP4","MEAN_MOTION":"15.06408685","TIME_SYSTEM":"UTC","REV_AT_EPOCH":"9269","ECCENTRICITY":"0.00011720","PERIOD":"95.592","GP_ID":"186050272","OBJECT_ID":"2020-006AM","FILE":"3141323","SEMIMAJOR_AXIS":"6925.322","EPHEMERIS_TYPE":"0","MEAN_ANOMALY":"257.2163","NORAD_CAT_ID":"45079","INCLINATION":"53.0544","OBJECT_TYPE":"PAYLOAD","REF_FRAME":"TEME","COUNTRY_CODE":"US","LAUNCH_DATE":"2020-01-29"},{"MEAN_MOTION_DOT":"0.00000765","ARG_OF_PERICENTER":"88.7738","EPOCH":"2021-10-02T15:39:28.896192","APOAPSIS":"547.913","RCS_SIZE":"LARGE","MEAN_MOTION_DDOT":"0.0000000000000","SITE":"AFETR","BSTAR":"0.00007025600000","PERIAPSIS":"546.489","OBJECT_NAME":"STARLINK-1153","RA_OF_ASC_NODE":"334.7642","ELEMENT_SET_NO":"999","TLE_LINE2":"2 45080  53.0546 334.7642 0001028  88.7738 271.3369 15.06404111 92716","DECAY_DATE":null,"TLE_LINE1":"1 45080U 20006AN  21275.65241778  .00000765  00000-0  70256-4 0  9994","CLASSIFICATION_TYPE":"U","CENTER_NAME":"EARTH","GP_ID":"186050523","OBJECT_ID":"2020-006AN","FILE":"3141323","SEMIMAJOR_AXIS":"6925.336","EPHEMERIS_TYPE":"0","MEAN_ANOMALY":"271.3369","NORAD_CAT_ID":"45080","OBJECT_TYPE":"PAYLOAD","INCLINATION":"53.0546","REF_FRAME":"TEME","COUNTRY_CODE":"US","LAUNCH_DATE":"2020-01-29","MEAN_ELEMENT_THEORY":"SGP4","MEAN_MOTION":"15.06404111","TIME_SYSTEM":"UTC","REV_AT_EPOCH":"9271","ECCENTRICITY":"0.00010280","PERIOD":"95.592"}];
